STARLINK-33793          
1 64165U 25112V   25308.38382350  .00004202  00000+0  29523-3 0  9994
2 64165  97.6028 358.0095 0001021  91.4702 268.6642 15.05652771 24451
STARLINK-34313          
1 64166U 25112W   25308.37551620  .00003776  00000+0  26570-3 0  9996
2 64166  97.6027 358.0207 0001147 101.7630 258.3725 15.05657936 24456
STARLINK-34309          
1 64167U 25112X   25308.10137803  .00009815  00000+0  68328-3 0  9998
2 64167  97.6037 357.7715 0001036  90.5016 269.6329 15.05663787 24410
STARLINK-34303          
1 64168U 25112Y   25308.42536338  .00006640  00000+0  46393-3 0  9991
2 64168  97.6046 358.1109 0000936  82.3252 277.8081 15.05651001 24469
STARLINK-34175          
1 64169U 25112Z   25308.14290762  .00006590  00000+0  46045-3 0  9997
2 64169  97.6050 357.7150 0001228  74.1358 286.0005 15.05656092 24415
STARLINK-34177          
1 64170U 25113A   25308.33069624  .00023988  00000+0  81916-3 0  9998
2 64170  53.1595 313.3090 0001560  96.9642 263.1537 15.30210211 25870
STARLINK-34228          
1 64171U 25113B   25308.31171500  .00029048  00000+0  98867-3 0  9990
2 64171  53.1590 313.1870 0001025  91.4105 268.7013 15.30212619 25874
STARLINK-34233          
1 64172U 25113C   25308.34441580  .00001153  00000+0  51061-4 0  9995
2 64172  53.1595 313.3909 0000951  82.4026 277.7083 15.30192726 25877
STARLINK-34172          
1 64173U 25113D   25308.31275264  .00025211  00000+0  86025-3 0  9995
2 64173  53.1589 313.1919 0001085  99.2400 260.8724 15.30207616 25837
STARLINK-34202          
1 64174U 25113E   25308.33702841  .00011298  00000+0  39295-3 0  9991
2 64174  53.1602 313.3437 0001629  68.8677 291.2498 15.30203078 25871
STARLINK-34231          
1 64175U 25113F   25308.28754020  .00032535  00000+0  11055-2 0  9992
2 64175  53.1602 313.7443 0001175  90.5019 269.6116 15.30209789 25861
STARLINK-34191          
1 64176U 25113G   25308.29903374  .00019473  00000+0  66784-3 0  9998
2 64176  53.1598 313.1051 0001216  82.1129 278.0009 15.30201646 25870
STARLINK-34164          
1 64177U 25113H   25308.29492759  .00032501  00000+0  11045-2 0  9995
2 64177  53.1602 313.7927 0001250  86.9701 273.1443 15.30206611 25865
STARLINK-34227          
1 64178U 25113J   25308.34019221  .00021489  00000+0  73533-3 0  9995
2 64178  53.1593 313.3623 0001470  91.7915 268.3254 15.30210109 25873
STARLINK-34194          
1 64179U 25113K   25308.30431177  .00036118  00000+0  12258-2 0  9991
2 64179  53.1592 313.1399 0001285  92.2265 267.8883 15.30196638 25871
STARLINK-34000          
1 64180U 25113L   25308.19478703  .00044923  00000+0  15184-2 0  9990
2 64180  53.1598 313.8756 0001456 104.1326 255.9836 15.30229056 25815
