[{"OBJECT_NAME":"STARLINK-33793","OBJECT_ID":"2025-112V","EPOCH":"2025-11-04T09:12:42.350400","MEAN_MOTION":15.05652771,"ECCENTRICITY":0.0001021,"INCLINATION":97.6028,"RA_OF_ASC_NODE":358.0095,"ARG_OF_PERICENTER":91.4702,"MEAN_ANOMALY":268.6642,"EPHEMERIS_TYPE":0,"CLASSIFICATION_TYPE":"U","NORAD_CAT_ID":64165,"ELEMENT_SET_NO":999,"REV_AT_EPOCH":2445,"BSTAR":0.00029523,"MEAN_MOTION_DOT":4.202e-5,"MEAN_MOTION_DDOT":0},{"OBJECT_NAME":"STARLINK-34313","OBJECT_ID":"2025-112W","EPOCH":"2025-11-04T09:00:44.599680","MEAN_MOTION":15.05657936,"ECCENTRICITY":0.0001147,"INCLINATION":97.6027,"RA_OF_ASC_NODE":358.0207,"ARG_OF_PERICENTER":101.763,"MEAN_ANOMALY":258.3725,"EPHEMERIS_TYPE":0,"CLASSIFICATION_TYPE":"U","NORAD_CAT_ID":64166,"ELEMENT_SET_NO":999,"REV_AT_EPOCH":2445,"BSTAR":0.0002657,"MEAN_MOTION_DOT":3.776e-5,"MEAN_MOTION_DDOT":0},{"OBJECT_NAME":"STARLINK-34309","OBJECT_ID":"2025-112X","EPOCH":"2025-11-04T02:25:59.061792","MEAN_MOTION":15.05663787,"ECCENTRICITY":0.00010363,"INCLINATION":97.6037,"RA_OF_ASC_NODE":357.7715,"ARG_OF_PERICENTER":90.5016,"MEAN_ANOMALY":269.6329,"EPHEMERIS_TYPE":0,"CLASSIFICATION_TYPE":"U","NORAD_CAT_ID":64167,"ELEMENT_SET_NO":999,"REV_AT_EPOCH":2441,"BSTAR":0.00068327695,"MEAN_MOTION_DOT":9.815e-5,"MEAN_MOTION_DDOT":0},{"OBJECT_NAME":"STARLINK-34303","OBJECT_ID":"2025-112Y","EPOCH":"2025-11-04T10:12:31.396032","MEAN_MOTION":15.05651001,"ECCENTRICITY":9.36e-5,"INCLINATION":97.6046,"RA_OF_ASC_NODE":358.1109,"ARG_OF_PERICENTER":82.3252,"MEAN_ANOMALY":277.8081,"EPHEMERIS_TYPE":0,"CLASSIFICATION_TYPE":"U","NORAD_CAT_ID":64168,"ELEMENT_SET_NO":999,"REV_AT_EPOCH":2446,"BSTAR":0.00046393,"MEAN_MOTION_DOT":6.64e-5,"MEAN_MOTION_DDOT":0},{"OBJECT_NAME":"STARLINK-34175","OBJECT_ID":"2025-112Z","EPOCH":"2025-11-04T03:25:47.218368","MEAN_MOTION":15.05656092,"ECCENTRICITY":0.00012284,"INCLINATION":97.605,"RA_OF_ASC_NODE":357.715,"ARG_OF_PERICENTER":74.1358,"MEAN_ANOMALY":286.0005,"EPHEMERIS_TYPE":0,"CLASSIFICATION_TYPE":"U","NORAD_CAT_ID":64169,"ELEMENT_SET_NO":999,"REV_AT_EPOCH":2441,"BSTAR":0.00046044501,"MEAN_MOTION_DOT":6.59e-5,"MEAN_MOTION_DDOT":0},{"OBJECT_NAME":"STARLINK-34177","OBJECT_ID":"2025-113A","EPOCH":"2025-11-04T07:56:12.155136","MEAN_MOTION":15.30210211,"ECCENTRICITY":0.000156,"INCLINATION":53.1595,"RA_OF_ASC_NODE":313.309,"ARG_OF_PERICENTER":96.9642,"MEAN_ANOMALY":263.1537,"EPHEMERIS_TYPE":0,"CLASSIFICATION_TYPE":"U","NORAD_CAT_ID":64170,"ELEMENT_SET_NO":999,"REV_AT_EPOCH":2587,"BSTAR":0.00081916,"MEAN_MOTION_DOT":0.00023988,"MEAN_MOTION_DDOT":0},{"OBJECT_NAME":"STARLINK-34228","OBJECT_ID":"2025-113B","EPOCH":"2025-11-04T07:28:52.176000","MEAN_MOTION":15.30212619,"ECCENTRICITY":0.0001025,"INCLINATION":53.159,"RA_OF_ASC_NODE":313.187,"ARG_OF_PERICENTER":91.4105,"MEAN_ANOMALY":268.7013,"EPHEMERIS_TYPE":0,"CLASSIFICATION_TYPE":"U","NORAD_CAT_ID":64171,"ELEMENT_SET_NO":999,"REV_AT_EPOCH":2587,"BSTAR":0.00098867,"MEAN_MOTION_DOT":0.00029048,"MEAN_MOTION_DDOT":0},{"OBJECT_NAME":"STARLINK-34233","OBJECT_ID":"2025-113C","EPOCH":"2025-11-04T08:15:57.525120","MEAN_MOTION":15.30192726,"ECCENTRICITY":9.51e-5,"INCLINATION":53.1595,"RA_OF_ASC_NODE":313.3909,"ARG_OF_PERICENTER":82.4026,"MEAN_ANOMALY":277.7083,"EPHEMERIS_TYPE":0,"CLASSIFICATION_TYPE":"U","NORAD_CAT_ID":64172,"ELEMENT_SET_NO":999,"REV_AT_EPOCH":2587,"BSTAR":5.1061e-5,"MEAN_MOTION_DOT":1.153e-5,"MEAN_MOTION_DDOT":0},{"OBJECT_NAME":"STARLINK-34172","OBJECT_ID":"2025-113D","EPOCH":"2025-11-04T07:30:21.828096","MEAN_MOTION":15.30207616,"ECCENTRICITY":0.0001085,"INCLINATION":53.1589,"RA_OF_ASC_NODE":313.1919,"ARG_OF_PERICENTER":99.24,"MEAN_ANOMALY":260.8724,"EPHEMERIS_TYPE":0,"CLASSIFICATION_TYPE":"U","NORAD_CAT_ID":64173,"ELEMENT_SET_NO":999,"REV_AT_EPOCH":2583,"BSTAR":0.00086025,"MEAN_MOTION_DOT":0.00025211,"MEAN_MOTION_DDOT":0},{"OBJECT_NAME":"STARLINK-34202","OBJECT_ID":"2025-113E","EPOCH":"2025-11-04T08:05:19.254624","MEAN_MOTION":15.30203078,"ECCENTRICITY":0.0001629,"INCLINATION":53.1602,"RA_OF_ASC_NODE":313.3437,"ARG_OF_PERICENTER":68.8677,"MEAN_ANOMALY":291.2498,"EPHEMERIS_TYPE":0,"CLASSIFICATION_TYPE":"U","NORAD_CAT_ID":64174,"ELEMENT_SET_NO":999,"REV_AT_EPOCH":2587,"BSTAR":0.00039295,"MEAN_MOTION_DOT":0.00011298,"MEAN_MOTION_DDOT":0},{"OBJECT_NAME":"STARLINK-34231","OBJECT_ID":"2025-113F","EPOCH":"2025-11-04T06:54:03.473280","MEAN_MOTION":15.30209789,"ECCENTRICITY":0.0001175,"INCLINATION":53.1602,"RA_OF_ASC_NODE":313.7443,"ARG_OF_PERICENTER":90.5019,"MEAN_ANOMALY":269.6116,"EPHEMERIS_TYPE":0,"CLASSIFICATION_TYPE":"U","NORAD_CAT_ID":64175,"ELEMENT_SET_NO":999,"REV_AT_EPOCH":2586,"BSTAR":0.0011055,"MEAN_MOTION_DOT":0.00032535,"MEAN_MOTION_DDOT":0},{"OBJECT_NAME":"STARLINK-34191","OBJECT_ID":"2025-113G","EPOCH":"2025-11-04T07:10:36.515136","MEAN_MOTION":15.30201646,"ECCENTRICITY":0.0001216,"INCLINATION":53.1598,"RA_OF_ASC_NODE":313.1051,"ARG_OF_PERICENTER":82.1129,"MEAN_ANOMALY":278.0009,"EPHEMERIS_TYPE":0,"CLASSIFICATION_TYPE":"U","NORAD_CAT_ID":64176,"ELEMENT_SET_NO":999,"REV_AT_EPOCH":2587,"BSTAR":0.00066784,"MEAN_MOTION_DOT":0.00019473,"MEAN_MOTION_DDOT":0},{"OBJECT_NAME":"STARLINK-34164","OBJECT_ID":"2025-113H","EPOCH":"2025-11-04T07:04:41.743776","MEAN_MOTION":15.30206611,"ECCENTRICITY":0.000125,"INCLINATION":53.1602,"RA_OF_ASC_NODE":313.7927,"ARG_OF_PERICENTER":86.9701,"MEAN_ANOMALY":273.1443,"EPHEMERIS_TYPE":0,"CLASSIFICATION_TYPE":"U","NORAD_CAT_ID":64177,"ELEMENT_SET_NO":999,"REV_AT_EPOCH":2586,"BSTAR":0.0011045,"MEAN_MOTION_DOT":0.00032501,"MEAN_MOTION_DDOT":0},{"OBJECT_NAME":"STARLINK-34227","OBJECT_ID":"2025-113J","EPOCH":"2025-11-04T08:09:52.606944","MEAN_MOTION":15.30210109,"ECCENTRICITY":0.000147,"INCLINATION":53.1593,"RA_OF_ASC_NODE":313.3623,"ARG_OF_PERICENTER":91.7915,"MEAN_ANOMALY":268.3254,"EPHEMERIS_TYPE":0,"CLASSIFICATION_TYPE":"U","NORAD_CAT_ID":64178,"ELEMENT_SET_NO":999,"REV_AT_EPOCH":2587,"BSTAR":0.00073533,"MEAN_MOTION_DOT":0.00021489,"MEAN_MOTION_DDOT":0},{"OBJECT_NAME":"STARLINK-34194","OBJECT_ID":"2025-113K","EPOCH":"2025-11-04T07:18:12.536928","MEAN_MOTION":15.30196638,"ECCENTRICITY":0.0001285,"INCLINATION":53.1592,"RA_OF_ASC_NODE":313.1399,"ARG_OF_PERICENTER":92.2265,"MEAN_ANOMALY":267.8883,"EPHEMERIS_TYPE":0,"CLASSIFICATION_TYPE":"U","NORAD_CAT_ID":64179,"ELEMENT_SET_NO":999,"REV_AT_EPOCH":2587,"BSTAR":0.0012258,"MEAN_MOTION_DOT":0.00036118,"MEAN_MOTION_DDOT":0},{"OBJECT_NAME":"STARLINK-34000","OBJECT_ID":"2025-113L","EPOCH":"2025-11-04T04:40:29.599392","MEAN_MOTION":15.30229056,"ECCENTRICITY":0.0001456,"INCLINATION":53.1598,"RA_OF_ASC_NODE":313.8756,"ARG_OF_PERICENTER":104.1326,"MEAN_ANOMALY":255.9836,"EPHEMERIS_TYPE":0,"CLASSIFICATION_TYPE":"U","NORAD_CAT_ID":64180,"ELEMENT_SET_NO":999,"REV_AT_EPOCH":2581,"BSTAR":0.0015184,"MEAN_MOTION_DOT":0.00044923,"MEAN_MOTION_DDOT":0}]
